{
 "features": [
  {
   "geometry": {
    "coordinates": [
     114.31,
     34.8
    ],
    "type": "Point"
   },
   "properties": {
    "circuit": "京畿路",
    "game_unit": "东京开封府",
    "is_seat": true,
    "level": "京府",
    "name": "开封府"
   },
   "type": "Feature"
  },
  {
   "geometry": {
    "coordinates": [
     113.85,
     34.04
    ],
    "type": "Point"
   },
   "properties": {
    "circuit": "京畿路",
    "game_unit": "东京开封府",
    "is_seat": false,
    "level": "府",
    "name": "颍昌府"
   },
   "type": "Feature"
  },
  {
   "geometry": {
    "coordinates": [
     113.63,
     34.75
    ],
    "type": "Point"
   },
   "properties": {
    "circuit": "京畿路",
    "game_unit": "东京开封府",
    "is_seat": false,
    "level": "州",
    "name": "郑州"
   },
   "type": "Feature"
  },
  {
   "geometry": {
    "coordinates": [
     114.52,
     35.58
    ],
    "type": "Point"
   },
   "properties": {
    "circuit": "京畿路",
    "game_unit": "东京开封府",
    "is_seat": false,
    "level": "州",
    "name": "滑州"
   },
   "type": "Feature"
  },
  {
   "geometry": {
    "coordinates": [
     114.88,
     33.73
    ],
    "type": "Point"
   },
   "properties": {
    "circuit": "京畿路",
    "game_unit": "东京开封府",
    "is_seat": false,
    "level": "州",
    "name": "陈州"
   },
   "type": "Feature"
  },
  {
   "geometry": {
    "coordinates": [
     112.45,
     34.62
    ],
    "type": "Point"
   },
   "properties": {
    "circuit": "京西路",
    "game_unit": "京西路",
    "is_seat": true,
    "level": "府",
    "name": "河南府"
   },
   "type": "Feature"
  },
  {
   "geometry": {
    "coordinates": [
     113.85,
     34.04
    ],
    "type": "Point"
   },
   "properties": {
    "circuit": "京西路",
    "game_unit": "京西路",
    "is_seat": false,
    "level": "府",
    "name": "颍昌府"
   },
   "type": "Feature"
  },
  {
   "geometry": {
    "coordinates": [
     112.12,
     32.01
    ],
    "type": "Point"
   },
   "properties": {
    "circuit": "京西路",
    "game_unit": "京西路",
    "is_seat": false,
    "level": "府",
    "name": "襄阳府"
   },
   "type": "Feature"
  },
  {
   "geometry": {
    "coordinates": [
     112.09,
     32.69
    ],
    "type": "Point"
   },
   "properties": {
    "circuit": "京西路",
    "game_unit": "京西路",
    "is_seat": false,
    "level": "州",
    "name": "邓州"
   },
   "type": "Feature"
  },
  {
   "geometry": {
    "coordinates": [
     112.84,
     32.68
    ],
    "type": "Point"
   },
   "properties": {
    "circuit": "京西路",
    "game_unit": "京西路",
    "is_seat": false,
    "level": "州",
    "name": "唐州"
   },
   "type": "Feature"
  },
  {
   "geometry": {
    "coordinates": [
     113.38,
     31.69
    ],
    "type": "Point"
   },
   "properties": {
    "circuit": "京西路",
    "game_unit": "京西路",
    "is_seat": false,
    "level": "州",
    "name": "随州"
   },
   "type": "Feature"
  },
  {
   "geometry": {
    "coordinates": [
     115.15,
     36.28
    ],
    "type": "Point"
   },
   "properties": {
    "circuit": "河北路",
    "game_unit": "河北路",
    "is_seat": true,
    "level": "府",
    "name": "大名府"
   },
   "type": "Feature"
  },
  {
   "geometry": {
    "coordinates": [
     114.57,
     38.14
    ],
    "type": "Point"
   },
   "properties": {
    "circuit": "河北路",
    "game_unit": "河北路",
    "is_seat": false,
    "level": "府",
    "name": "真定府"
   },
   "type": "Feature"
  },
  {
   "geometry": {
    "coordinates": [
     116.1,
     38.45
    ],
    "type": "Point"
   },
   "properties": {
    "circuit": "河北路",
    "game_unit": "河北路",
    "is_seat": false,
    "level": "府",
    "name": "河间府"
   },
   "type": "Feature"
  },
  {
   "geometry": {
    "coordinates": [
     114.99,
     38.51
    ],
    "type": "Point"
   },
   "properties": {
    "circuit": "河北路",
    "game_unit": "河北路",
    "is_seat": false,
    "level": "州",
    "name": "定州"
   },
   "type": "Feature"
  },
  {
   "geometry": {
    "coordinates": [
     115.03,
     35.76
    ],
    "type": "Point"
   },
   "properties": {
    "circuit": "河北路",
    "game_unit": "河北路",
    "is_seat": false,
    "level": "州",
    "name": "澶州"
   },
   "type": "Feature"
  },
  {
   "geometry": {
    "coordinates": [
     116.86,
     38.3
    ],
    "type": "Point"
   },
   "properties": {
    "circuit": "河北路",
    "game_unit": "河北路",
    "is_seat": false,
    "level": "州",
    "name": "沧州"
   },
   "type": "Feature"
  },
  {
   "geometry": {
    "coordinates": [
     114.5,
     37.07
    ],
    "type": "Point"
   },
   "properties": {
    "circuit": "河北路",
    "game_unit": "河北路",
    "is_seat": false,
    "level": "州",
    "name": "邢州"
   },
   "type": "Feature"
  },
  {
   "geometry": {
    "coordinates": [
     116.11,
     38.99
    ],
    "type": "Point"
   },
   "properties": {
    "circuit": "河北路",
    "game_unit": "河北路",
    "is_seat": false,
    "level": "州",
    "name": "雄州"
   },
   "type": "Feature"
  },
  {
   "geometry": {
    "coordinates": [
     112.55,
     37.87
    ],
    "type": "Point"
   },
   "properties": {
    "circuit": "河东路",
    "game_unit": "河东",
    "is_seat": true,
    "level": "府",
    "name": "太原府"
   },
   "type": "Feature"
  },
  {
   "geometry": {
    "coordinates": [
     113.12,
     36.19
    ],
    "type": "Point"
   },
   "properties": {
    "circuit": "河东路",
    "game_unit": "河东",
    "is_seat": false,
    "level": "州",
    "name": "潞州"
   },
   "type": "Feature"
  },
  {
   "geometry": {
    "coordinates": [
     111.52,
     36.09
    ],
    "type": "Point"
   },
   "properties": {
    "circuit": "河东路",
    "game_unit": "河东",
    "is_seat": false,
    "level": "府",
    "name": "平阳府"
   },
   "type": "Feature"
  },
  {
   "geometry": {
    "coordinates": [
     112.96,
     39.07
    ],
    "type": "Point"
   },
   "properties": {
    "circuit": "河东路",
    "game_unit": "河东",
    "is_seat": false,
    "level": "州",
    "name": "代州"
   },
   "type": "Feature"
  },
  {
   "geometry": {
    "coordinates": [
     112.73,
     38.42
    ],
    "type": "Point"
   },
   "properties": {
    "circuit": "河东路",
    "game_unit": "河东",
    "is_seat": false,
    "level": "州",
    "name": "忻州"
   },
   "type": "Feature"
  },
  {
   "geometry": {
    "coordinates": [
     111.14,
     37.52
    ],
    "type": "Point"
   },
   "properties": {
    "circuit": "河东路",
    "game_unit": "河东",
    "is_seat": false,
    "level": "州",
    "name": "石州"
   },
   "type": "Feature"
  },
  {
   "geometry": {
    "coordinates": [
     108.94,
     34.27
    ],
    "type": "Point"
   },
   "properties": {
    "circuit": "陕西路",
    "game_unit": "陕西路",
    "is_seat": true,
    "level": "府",
    "name": "京兆府"
   },
   "type": "Feature"
  },
  {
   "geometry": {
    "coordinates": [
     109.49,
     36.6
    ],
    "type": "Point"
   },
   "properties": {
    "circuit": "陕西路",
    "game_unit": "陕西路",
    "is_seat": false,
    "level": "府",
    "name": "延安府"
   },
   "type": "Feature"
  },
  {
   "geometry": {
    "coordinates": [
     107.4,
     34.52
    ],
    "type": "Point"
   },
   "properties": {
    "circuit": "陕西路",
    "game_unit": "陕西路",
    "is_seat": false,
    "level": "府",
    "name": "凤翔府"
   },
   "type": "Feature"
  },
  {
   "geometry": {
    "coordinates": [
     105.72,
     34.58
    ],
    "type": "Point"
   },
   "properties": {
    "circuit": "陕西路",
    "game_unit": "陕西路",
    "is_seat": false,
    "level": "州",
    "name": "秦州"
   },
   "type": "Feature"
  },
  {
   "geometry": {
    "coordinates": [
     106.68,
     35.55
    ],
    "type": "Point"
   },
   "properties": {
    "circuit": "陕西路",
    "game_unit": "陕西路",
    "is_seat": false,
    "level": "州",
    "name": "渭州"
   },
   "type": "Feature"
  },
  {
   "geometry": {
    "coordinates": [
     107.64,
     35.73
    ],
    "type": "Point"
   },
   "properties": {
    "circuit": "陕西路",
    "game_unit": "陕西路",
    "is_seat": false,
    "level": "州",
    "name": "庆州"
   },
   "type": "Feature"
  },
  {
   "geometry": {
    "coordinates": [
     103.86,
     35.38
    ],
    "type": "Point"
   },
   "properties": {
    "circuit": "陕西路",
    "game_unit": "陕西路",
    "is_seat": false,
    "level": "州",
    "name": "熙州"
   },
   "type": "Feature"
  },
  {
   "geometry": {
    "coordinates": [
     120.16,
     30.25
    ],
    "type": "Point"
   },
   "properties": {
    "circuit": "两浙路",
    "game_unit": "两浙路",
    "is_seat": true,
    "level": "州",
    "name": "杭州"
   },
   "type": "Feature"
  },
  {
   "geometry": {
    "coordinates": [
     120.62,
     31.32
    ],
    "type": "Point"
   },
   "properties": {
    "circuit": "两浙路",
    "game_unit": "两浙路",
    "is_seat": false,
    "level": "州",
    "name": "苏州"
   },
   "type": "Feature"
  },
  {
   "geometry": {
    "coordinates": [
     120.58,
     30.0
    ],
    "type": "Point"
   },
   "properties": {
    "circuit": "两浙路",
    "game_unit": "两浙路",
    "is_seat": false,
    "level": "州",
    "name": "越州"
   },
   "type": "Feature"
  },
  {
   "geometry": {
    "coordinates": [
     119.42,
     32.2
    ],
    "type": "Point"
   },
   "properties": {
    "circuit": "两浙路",
    "game_unit": "两浙路",
    "is_seat": false,
    "level": "州",
    "name": "润州"
   },
   "type": "Feature"
  },
  {
   "geometry": {
    "coordinates": [
     121.55,
     29.87
    ],
    "type": "Point"
   },
   "properties": {
    "circuit": "两浙路",
    "game_unit": "两浙路",
    "is_seat": false,
    "level": "州",
    "name": "明州"
   },
   "type": "Feature"
  },
  {
   "geometry": {
    "coordinates": [
     120.09,
     30.87
    ],
    "type": "Point"
   },
   "properties": {
    "circuit": "两浙路",
    "game_unit": "两浙路",
    "is_seat": false,
    "level": "州",
    "name": "湖州"
   },
   "type": "Feature"
  },
  {
   "geometry": {
    "coordinates": [
     119.65,
     29.08
    ],
    "type": "Point"
   },
   "properties": {
    "circuit": "两浙路",
    "game_unit": "两浙路",
    "is_seat": false,
    "level": "州",
    "name": "婺州"
   },
   "type": "Feature"
  },
  {
   "geometry": {
    "coordinates": [
     121.13,
     28.86
    ],
    "type": "Point"
   },
   "properties": {
    "circuit": "两浙路",
    "game_unit": "两浙路",
    "is_seat": false,
    "level": "州",
    "name": "台州"
   },
   "type": "Feature"
  },
  {
   "geometry": {
    "coordinates": [
     120.7,
     28.0
    ],
    "type": "Point"
   },
   "properties": {
    "circuit": "两浙路",
    "game_unit": "两浙路",
    "is_seat": false,
    "level": "州",
    "name": "温州"
   },
   "type": "Feature"
  },
  {
   "geometry": {
    "coordinates": [
     118.78,
     32.06
    ],
    "type": "Point"
   },
   "properties": {
    "circuit": "江南东路",
    "game_unit": "江南东路",
    "is_seat": true,
    "level": "府",
    "name": "江宁府"
   },
   "type": "Feature"
  },
  {
   "geometry": {
    "coordinates": [
     118.76,
     30.95
    ],
    "type": "Point"
   },
   "properties": {
    "circuit": "江南东路",
    "game_unit": "江南东路",
    "is_seat": false,
    "level": "州",
    "name": "宣州"
   },
   "type": "Feature"
  },
  {
   "geometry": {
    "coordinates": [
     118.44,
     29.87
    ],
    "type": "Point"
   },
   "properties": {
    "circuit": "江南东路",
    "game_unit": "江南东路",
    "is_seat": false,
    "level": "州",
    "name": "歙州"
   },
   "type": "Feature"
  },
  {
   "geometry": {
    "coordinates": [
     117.49,
     30.66
    ],
    "type": "Point"
   },
   "properties": {
    "circuit": "江南东路",
    "game_unit": "江南东路",
    "is_seat": false,
    "level": "州",
    "name": "池州"
   },
   "type": "Feature"
  },
  {
   "geometry": {
    "coordinates": [
     116.68,
     29.0
    ],
    "type": "Point"
   },
   "properties": {
    "circuit": "江南东路",
    "game_unit": "江南东路",
    "is_seat": false,
    "level": "州",
    "name": "饶州"
   },
   "type": "Feature"
  },
  {
   "geometry": {
    "coordinates": [
     117.94,
     28.45
    ],
    "type": "Point"
   },
   "properties": {
    "circuit": "江南东路",
    "game_unit": "江南东路",
    "is_seat": false,
    "level": "州",
    "name": "信州"
   },
   "type": "Feature"
  },
  {
   "geometry": {
    "coordinates": [
     118.5,
     31.57
    ],
    "type": "Point"
   },
   "properties": {
    "circuit": "江南东路",
    "game_unit": "江南东路",
    "is_seat": false,
    "level": "州",
    "name": "太平州"
   },
   "type": "Feature"
  },
  {
   "geometry": {
    "coordinates": [
     115.89,
     28.68
    ],
    "type": "Point"
   },
   "properties": {
    "circuit": "江南西路",
    "game_unit": "江南西路",
    "is_seat": true,
    "level": "州",
    "name": "洪州"
   },
   "type": "Feature"
  },
  {
   "geometry": {
    "coordinates": [
     114.99,
     27.12
    ],
    "type": "Point"
   },
   "properties": {
    "circuit": "江南西路",
    "game_unit": "江南西路",
    "is_seat": false,
    "level": "州",
    "name": "吉州"
   },
   "type": "Feature"
  },
  {
   "geometry": {
    "coordinates": [
     114.94,
     25.85
    ],
    "type": "Point"
   },
   "properties": {
    "circuit": "江南西路",
    "game_unit": "江南西路",
    "is_seat": false,
    "level": "州",
    "name": "虔州"
   },
   "type": "Feature"
  },
  {
   "geometry": {
    "coordinates": [
     116.36,
     27.98
    ],
    "type": "Point"
   },
   "properties": {
    "circuit": "江南西路",
    "game_unit": "江南西路",
    "is_seat": false,
    "level": "州",
    "name": "抚州"
   },
   "type": "Feature"
  },
  {
   "geometry": {
    "coordinates": [
     114.39,
     27.81
    ],
    "type": "Point"
   },
   "properties": {
    "circuit": "江南西路",
    "game_unit": "江南西路",
    "is_seat": false,
    "level": "州",
    "name": "袁州"
   },
   "type": "Feature"
  },
  {
   "geometry": {
    "coordinates": [
     115.38,
     28.42
    ],
    "type": "Point"
   },
   "properties": {
    "circuit": "江南西路",
    "game_unit": "江南西路",
    "is_seat": false,
    "level": "州",
    "name": "筠州"
   },
   "type": "Feature"
  },
  {
   "geometry": {
    "coordinates": [
     112.94,
     28.23
    ],
    "type": "Point"
   },
   "properties": {
    "circuit": "荆湖南路",
    "game_unit": "荆湖南路",
    "is_seat": true,
    "level": "州",
    "name": "潭州"
   },
   "type": "Feature"
  },
  {
   "geometry": {
    "coordinates": [
     112.61,
     26.89
    ],
    "type": "Point"
   },
   "properties": {
    "circuit": "荆湖南路",
    "game_unit": "荆湖南路",
    "is_seat": false,
    "level": "州",
    "name": "衡州"
   },
   "type": "Feature"
  },
  {
   "geometry": {
    "coordinates": [
     111.62,
     26.22
    ],
    "type": "Point"
   },
   "properties": {
    "circuit": "荆湖南路",
    "game_unit": "荆湖南路",
    "is_seat": false,
    "level": "州",
    "name": "永州"
   },
   "type": "Feature"
  },
  {
   "geometry": {
    "coordinates": [
     111.6,
     25.52
    ],
    "type": "Point"
   },
   "properties": {
    "circuit": "荆湖南路",
    "game_unit": "荆湖南路",
    "is_seat": false,
    "level": "州",
    "name": "道州"
   },
   "type": "Feature"
  },
  {
   "geometry": {
    "coordinates": [
     113.03,
     25.79
    ],
    "type": "Point"
   },
   "properties": {
    "circuit": "荆湖南路",
    "game_unit": "荆湖南路",
    "is_seat": false,
    "level": "州",
    "name": "郴州"
   },
   "type": "Feature"
  },
  {
   "geometry": {
    "coordinates": [
     111.47,
     27.24
    ],
    "type": "Point"
   },
   "properties": {
    "circuit": "荆湖南路",
    "game_unit": "荆湖南路",
    "is_seat": false,
    "level": "州",
    "name": "邵州"
   },
   "type": "Feature"
  },
  {
   "geometry": {
    "coordinates": [
     119.3,
     26.08
    ],
    "type": "Point"
   },
   "properties": {
    "circuit": "福建路",
    "game_unit": "福建路",
    "is_seat": true,
    "level": "州",
    "name": "福州"
   },
   "type": "Feature"
  },
  {
   "geometry": {
    "coordinates": [
     118.59,
     24.91
    ],
    "type": "Point"
   },
   "properties": {
    "circuit": "福建路",
    "game_unit": "福建路",
    "is_seat": false,
    "level": "州",
    "name": "泉州"
   },
   "type": "Feature"
  },
  {
   "geometry": {
    "coordinates": [
     118.3,
     27.04
    ],
    "type": "Point"
   },
   "properties": {
    "circuit": "福建路",
    "game_unit": "福建路",
    "is_seat": false,
    "level": "州",
    "name": "建州"
   },
   "type": "Feature"
  },
  {
   "geometry": {
    "coordinates": [
     117.65,
     24.51
    ],
    "type": "Point"
   },
   "properties": {
    "circuit": "福建路",
    "game_unit": "福建路",
    "is_seat": false,
    "level": "州",
    "name": "漳州"
   },
   "type": "Feature"
  },
  {
   "geometry": {
    "coordinates": [
     116.36,
     25.85
    ],
    "type": "Point"
   },
   "properties": {
    "circuit": "福建路",
    "game_unit": "福建路",
    "is_seat": false,
    "level": "州",
    "name": "汀州"
   },
   "type": "Feature"
  },
  {
   "geometry": {
    "coordinates": [
     118.18,
     26.64
    ],
    "type": "Point"
   },
   "properties": {
    "circuit": "福建路",
    "game_unit": "福建路",
    "is_seat": false,
    "level": "州",
    "name": "南剑州"
   },
   "type": "Feature"
  },
  {
   "geometry": {
    "coordinates": [
     119.01,
     25.45
    ],
    "type": "Point"
   },
   "properties": {
    "circuit": "福建路",
    "game_unit": "福建路",
    "is_seat": false,
    "level": "军",
    "name": "兴化军"
   },
   "type": "Feature"
  },
  {
   "geometry": {
    "coordinates": [
     104.07,
     30.67
    ],
    "type": "Point"
   },
   "properties": {
    "circuit": "成都府路",
    "game_unit": "成都府路",
    "is_seat": true,
    "level": "府",
    "name": "成都府"
   },
   "type": "Feature"
  },
  {
   "geometry": {
    "coordinates": [
     103.85,
     30.05
    ],
    "type": "Point"
   },
   "properties": {
    "circuit": "成都府路",
    "game_unit": "成都府路",
    "is_seat": false,
    "level": "州",
    "name": "眉州"
   },
   "type": "Feature"
  },
  {
   "geometry": {
    "coordinates": [
     103.67,
     30.63
    ],
    "type": "Point"
   },
   "properties": {
    "circuit": "成都府路",
    "game_unit": "成都府路",
    "is_seat": false,
    "level": "州",
    "name": "蜀州"
   },
   "type": "Feature"
  },
  {
   "geometry": {
    "coordinates": [
     103.96,
     30.99
    ],
    "type": "Point"
   },
   "properties": {
    "circuit": "成都府路",
    "game_unit": "成都府路",
    "is_seat": false,
    "level": "州",
    "name": "彭州"
   },
   "type": "Feature"
  },
  {
   "geometry": {
    "coordinates": [
     104.68,
     31.47
    ],
    "type": "Point"
   },
   "properties": {
    "circuit": "成都府路",
    "game_unit": "成都府路",
    "is_seat": false,
    "level": "州",
    "name": "绵州"
   },
   "type": "Feature"
  },
  {
   "geometry": {
    "coordinates": [
     104.28,
     30.98
    ],
    "type": "Point"
   },
   "properties": {
    "circuit": "成都府路",
    "game_unit": "成都府路",
    "is_seat": false,
    "level": "州",
    "name": "汉州"
   },
   "type": "Feature"
  },
  {
   "geometry": {
    "coordinates": [
     103.77,
     29.55
    ],
    "type": "Point"
   },
   "properties": {
    "circuit": "成都府路",
    "game_unit": "成都府路",
    "is_seat": false,
    "level": "州",
    "name": "嘉州"
   },
   "type": "Feature"
  },
  {
   "geometry": {
    "coordinates": [
     113.26,
     23.13
    ],
    "type": "Point"
   },
   "properties": {
    "circuit": "广南东路",
    "game_unit": "广南东路",
    "is_seat": true,
    "level": "州",
    "name": "广州"
   },
   "type": "Feature"
  },
  {
   "geometry": {
    "coordinates": [
     113.6,
     24.81
    ],
    "type": "Point"
   },
   "properties": {
    "circuit": "广南东路",
    "game_unit": "广南东路",
    "is_seat": false,
    "level": "州",
    "name": "韶州"
   },
   "type": "Feature"
  },
  {
   "geometry": {
    "coordinates": [
     116.63,
     23.66
    ],
    "type": "Point"
   },
   "properties": {
    "circuit": "广南东路",
    "game_unit": "广南东路",
    "is_seat": false,
    "level": "州",
    "name": "潮州"
   },
   "type": "Feature"
  },
  {
   "geometry": {
    "coordinates": [
     114.42,
     23.11
    ],
    "type": "Point"
   },
   "properties": {
    "circuit": "广南东路",
    "game_unit": "广南东路",
    "is_seat": false,
    "level": "州",
    "name": "惠州"
   },
   "type": "Feature"
  },
  {
   "geometry": {
    "coordinates": [
     112.47,
     23.05
    ],
    "type": "Point"
   },
   "properties": {
    "circuit": "广南东路",
    "game_unit": "广南东路",
    "is_seat": false,
    "level": "州",
    "name": "端州"
   },
   "type": "Feature"
  },
  {
   "geometry": {
    "coordinates": [
     113.42,
     24.19
    ],
    "type": "Point"
   },
   "properties": {
    "circuit": "广南东路",
    "game_unit": "广南东路",
    "is_seat": false,
    "level": "州",
    "name": "英州"
   },
   "type": "Feature"
  },
  {
   "geometry": {
    "coordinates": [
     119.42,
     32.39
    ],
    "type": "Point"
   },
   "properties": {
    "circuit": "淮南东路",
    "game_unit": null,
    "is_seat": true,
    "level": "州",
    "name": "扬州"
   },
   "type": "Feature"
  },
  {
   "geometry": {
    "coordinates": [
     119.15,
     33.61
    ],
    "type": "Point"
   },
   "properties": {
    "circuit": "淮南东路",
    "game_unit": null,
    "is_seat": false,
    "level": "州",
    "name": "楚州"
   },
   "type": "Feature"
  },
  {
   "geometry": {
    "coordinates": [
     119.9,
     32.49
    ],
    "type": "Point"
   },
   "properties": {
    "circuit": "淮南东路",
    "game_unit": null,
    "is_seat": false,
    "level": "州",
    "name": "泰州"
   },
   "type": "Feature"
  },
  {
   "geometry": {
    "coordinates": [
     120.86,
     32.01
    ],
    "type": "Point"
   },
   "properties": {
    "circuit": "淮南东路",
    "game_unit": null,
    "is_seat": false,
    "level": "州",
    "name": "通州"
   },
   "type": "Feature"
  },
  {
   "geometry": {
    "coordinates": [
     119.18,
     32.27
    ],
    "type": "Point"
   },
   "properties": {
    "circuit": "淮南东路",
    "game_unit": null,
    "is_seat": false,
    "level": "州",
    "name": "真州"
   },
   "type": "Feature"
  },
  {
   "geometry": {
    "coordinates": [
     117.28,
     31.86
    ],
    "type": "Point"
   },
   "properties": {
    "circuit": "淮南西路",
    "game_unit": null,
    "is_seat": true,
    "level": "州",
    "name": "庐州"
   },
   "type": "Feature"
  },
  {
   "geometry": {
    "coordinates": [
     116.79,
     32.58
    ],
    "type": "Point"
   },
   "properties": {
    "circuit": "淮南西路",
    "game_unit": null,
    "is_seat": false,
    "level": "州",
    "name": "寿州"
   },
   "type": "Feature"
  },
  {
   "geometry": {
    "coordinates": [
     117.05,
     30.51
    ],
    "type": "Point"
   },
   "properties": {
    "circuit": "淮南西路",
    "game_unit": null,
    "is_seat": false,
    "level": "州",
    "name": "舒州"
   },
   "type": "Feature"
  },
  {
   "geometry": {
    "coordinates": [
     114.87,
     30.45
    ],
    "type": "Point"
   },
   "properties": {
    "circuit": "淮南西路",
    "game_unit": null,
    "is_seat": false,
    "level": "州",
    "name": "黄州"
   },
   "type": "Feature"
  },
  {
   "geometry": {
    "coordinates": [
     115.44,
     30.23
    ],
    "type": "Point"
   },
   "properties": {
    "circuit": "淮南西路",
    "game_unit": null,
    "is_seat": false,
    "level": "州",
    "name": "蕲州"
   },
   "type": "Feature"
  },
  {
   "geometry": {
    "coordinates": [
     115.05,
     32.13
    ],
    "type": "Point"
   },
   "properties": {
    "circuit": "淮南西路",
    "game_unit": null,
    "is_seat": false,
    "level": "州",
    "name": "光州"
   },
   "type": "Feature"
  },
  {
   "geometry": {
    "coordinates": [
     112.24,
     30.33
    ],
    "type": "Point"
   },
   "properties": {
    "circuit": "荆湖北路",
    "game_unit": null,
    "is_seat": true,
    "level": "府",
    "name": "江陵府"
   },
   "type": "Feature"
  },
  {
   "geometry": {
    "coordinates": [
     113.13,
     29.37
    ],
    "type": "Point"
   },
   "properties": {
    "circuit": "荆湖北路",
    "game_unit": null,
    "is_seat": false,
    "level": "州",
    "name": "岳州"
   },
   "type": "Feature"
  },
  {
   "geometry": {
    "coordinates": [
     111.69,
     29.04
    ],
    "type": "Point"
   },
   "properties": {
    "circuit": "荆湖北路",
    "game_unit": null,
    "is_seat": false,
    "level": "州",
    "name": "鼎州"
   },
   "type": "Feature"
  },
  {
   "geometry": {
    "coordinates": [
     111.76,
     29.64
    ],
    "type": "Point"
   },
   "properties": {
    "circuit": "荆湖北路",
    "game_unit": null,
    "is_seat": false,
    "level": "州",
    "name": "澧州"
   },
   "type": "Feature"
  },
  {
   "geometry": {
    "coordinates": [
     114.31,
     30.6
    ],
    "type": "Point"
   },
   "properties": {
    "circuit": "荆湖北路",
    "game_unit": null,
    "is_seat": false,
    "level": "州",
    "name": "鄂州"
   },
   "type": "Feature"
  },
  {
   "geometry": {
    "coordinates": [
     110.98,
     30.82
    ],
    "type": "Point"
   },
   "properties": {
    "circuit": "荆湖北路",
    "game_unit": null,
    "is_seat": false,
    "level": "州",
    "name": "归州"
   },
   "type": "Feature"
  },
  {
   "geometry": {
    "coordinates": [
     110.4,
     28.46
    ],
    "type": "Point"
   },
   "properties": {
    "circuit": "荆湖北路",
    "game_unit": null,
    "is_seat": false,
    "level": "州",
    "name": "辰州"
   },
   "type": "Feature"
  },
  {
   "geometry": {
    "coordinates": [
     110.29,
     25.27
    ],
    "type": "Point"
   },
   "properties": {
    "circuit": "广南西路",
    "game_unit": null,
    "is_seat": true,
    "level": "州",
    "name": "桂州"
   },
   "type": "Feature"
  },
  {
   "geometry": {
    "coordinates": [
     109.42,
     24.33
    ],
    "type": "Point"
   },
   "properties": {
    "circuit": "广南西路",
    "game_unit": null,
    "is_seat": false,
    "level": "州",
    "name": "柳州"
   },
   "type": "Feature"
  },
  {
   "geometry": {
    "coordinates": [
     111.28,
     23.48
    ],
    "type": "Point"
   },
   "properties": {
    "circuit": "广南西路",
    "game_unit": null,
    "is_seat": false,
    "level": "州",
    "name": "梧州"
   },
   "type": "Feature"
  },
  {
   "geometry": {
    "coordinates": [
     108.32,
     22.82
    ],
    "type": "Point"
   },
   "properties": {
    "circuit": "广南西路",
    "game_unit": null,
    "is_seat": false,
    "level": "州",
    "name": "邕州"
   },
   "type": "Feature"
  },
  {
   "geometry": {
    "coordinates": [
     110.55,
     22.85
    ],
    "type": "Point"
   },
   "properties": {
    "circuit": "广南西路",
    "game_unit": null,
    "is_seat": false,
    "level": "州",
    "name": "容州"
   },
   "type": "Feature"
  },
  {
   "geometry": {
    "coordinates": [
     110.35,
     20.03
    ],
    "type": "Point"
   },
   "properties": {
    "circuit": "广南西路",
    "game_unit": null,
    "is_seat": false,
    "level": "州",
    "name": "琼州"
   },
   "type": "Feature"
  },
  {
   "geometry": {
    "coordinates": [
     110.08,
     20.91
    ],
    "type": "Point"
   },
   "properties": {
    "circuit": "广南西路",
    "game_unit": null,
    "is_seat": false,
    "level": "州",
    "name": "雷州"
   },
   "type": "Feature"
  },
  {
   "geometry": {
    "coordinates": [
     107.03,
     33.07
    ],
    "type": "Point"
   },
   "properties": {
    "circuit": "利州路",
    "game_unit": null,
    "is_seat": true,
    "level": "府",
    "name": "兴元府"
   },
   "type": "Feature"
  },
  {
   "geometry": {
    "coordinates": [
     105.84,
     32.44
    ],
    "type": "Point"
   },
   "properties": {
    "circuit": "利州路",
    "game_unit": null,
    "is_seat": false,
    "level": "州",
    "name": "利州"
   },
   "type": "Feature"
  },
  {
   "geometry": {
    "coordinates": [
     105.97,
     31.57
    ],
    "type": "Point"
   },
   "properties": {
    "circuit": "利州路",
    "game_unit": null,
    "is_seat": false,
    "level": "州",
    "name": "阆州"
   },
   "type": "Feature"
  },
  {
   "geometry": {
    "coordinates": [
     105.52,
     32.02
    ],
    "type": "Point"
   },
   "properties": {
    "circuit": "利州路",
    "game_unit": null,
    "is_seat": false,
    "level": "州",
    "name": "剑州"
   },
   "type": "Feature"
  },
  {
   "geometry": {
    "coordinates": [
     109.46,
     31.02
    ],
    "type": "Point"
   },
   "properties": {
    "circuit": "夔州路",
    "game_unit": null,
    "is_seat": true,
    "level": "州",
    "name": "夔州"
   },
   "type": "Feature"
  },
  {
   "geometry": {
    "coordinates": [
     108.04,
     30.3
    ],
    "type": "Point"
   },
   "properties": {
    "circuit": "夔州路",
    "game_unit": null,
    "is_seat": false,
    "level": "州",
    "name": "忠州"
   },
   "type": "Feature"
  },
  {
   "geometry": {
    "coordinates": [
     108.41,
     30.81
    ],
    "type": "Point"
   },
   "properties": {
    "circuit": "夔州路",
    "game_unit": null,
    "is_seat": false,
    "level": "州",
    "name": "万州"
   },
   "type": "Feature"
  },
  {
   "geometry": {
    "coordinates": [
     107.47,
     31.21
    ],
    "type": "Point"
   },
   "properties": {
    "circuit": "夔州路",
    "game_unit": null,
    "is_seat": false,
    "level": "州",
    "name": "达州"
   },
   "type": "Feature"
  },
  {
   "geometry": {
    "coordinates": [
     107.39,
     29.7
    ],
    "type": "Point"
   },
   "properties": {
    "circuit": "夔州路",
    "game_unit": null,
    "is_seat": false,
    "level": "州",
    "name": "涪州"
   },
   "type": "Feature"
  },
  {
   "geometry": {
    "coordinates": [
     108.17,
     29.29
    ],
    "type": "Point"
   },
   "properties": {
    "circuit": "夔州路",
    "game_unit": null,
    "is_seat": false,
    "level": "州",
    "name": "黔州"
   },
   "type": "Feature"
  },
  {
   "geometry": {
    "coordinates": [
     109.49,
     30.27
    ],
    "type": "Point"
   },
   "properties": {
    "circuit": "夔州路",
    "game_unit": null,
    "is_seat": false,
    "level": "州",
    "name": "施州"
   },
   "type": "Feature"
  },
  {
   "geometry": {
    "coordinates": [
     118.48,
     36.68
    ],
    "type": "Point"
   },
   "properties": {
    "circuit": "京东东路",
    "game_unit": null,
    "is_seat": true,
    "level": "府",
    "name": "青州"
   },
   "type": "Feature"
  },
  {
   "geometry": {
    "coordinates": [
     119.41,
     35.99
    ],
    "type": "Point"
   },
   "properties": {
    "circuit": "京东东路",
    "game_unit": null,
    "is_seat": false,
    "level": "州",
    "name": "密州"
   },
   "type": "Feature"
  },
  {
   "geometry": {
    "coordinates": [
     118.35,
     35.06
    ],
    "type": "Point"
   },
   "properties": {
    "circuit": "京东东路",
    "game_unit": null,
    "is_seat": false,
    "level": "州",
    "name": "沂州"
   },
   "type": "Feature"
  },
  {
   "geometry": {
    "coordinates": [
     120.76,
     37.81
    ],
    "type": "Point"
   },
   "properties": {
    "circuit": "京东东路",
    "game_unit": null,
    "is_seat": false,
    "level": "州",
    "name": "登州"
   },
   "type": "Feature"
  },
  {
   "geometry": {
    "coordinates": [
     119.94,
     37.18
    ],
    "type": "Point"
   },
   "properties": {
    "circuit": "京东东路",
    "game_unit": null,
    "is_seat": false,
    "level": "州",
    "name": "莱州"
   },
   "type": "Feature"
  },
  {
   "geometry": {
    "coordinates": [
     119.16,
     36.71
    ],
    "type": "Point"
   },
   "properties": {
    "circuit": "京东东路",
    "game_unit": null,
    "is_seat": false,
    "level": "州",
    "name": "潍州"
   },
   "type": "Feature"
  },
  {
   "geometry": {
    "coordinates": [
     117.97,
     36.64
    ],
    "type": "Point"
   },
   "properties": {
    "circuit": "京东东路",
    "game_unit": null,
    "is_seat": false,
    "level": "州",
    "name": "淄州"
   },
   "type": "Feature"
  },
  {
   "geometry": {
    "coordinates": [
     116.83,
     35.55
    ],
    "type": "Point"
   },
   "properties": {
    "circuit": "京东西路",
    "game_unit": null,
    "is_seat": true,
    "level": "州",
    "name": "兖州"
   },
   "type": "Feature"
  },
  {
   "geometry": {
    "coordinates": [
     117.18,
     34.26
    ],
    "type": "Point"
   },
   "properties": {
    "circuit": "京东西路",
    "game_unit": null,
    "is_seat": false,
    "level": "州",
    "name": "徐州"
   },
   "type": "Feature"
  },
  {
   "geometry": {
    "coordinates": [
     116.06,
     35.4
    ],
    "type": "Point"
   },
   "properties": {
    "circuit": "京东西路",
    "game_unit": null,
    "is_seat": false,
    "level": "州",
    "name": "济州"
   },
   "type": "Feature"
  },
  {
   "geometry": {
    "coordinates": [
     116.3,
     35.93
    ],
    "type": "Point"
   },
   "properties": {
    "circuit": "京东西路",
    "game_unit": null,
    "is_seat": false,
    "level": "州",
    "name": "郓州"
   },
   "type": "Feature"
  },
  {
   "geometry": {
    "coordinates": [
     115.51,
     35.56
    ],
    "type": "Point"
   },
   "properties": {
    "circuit": "京东西路",
    "game_unit": null,
    "is_seat": false,
    "level": "州",
    "name": "濮州"
   },
   "type": "Feature"
  },
  {
   "geometry": {
    "coordinates": [
     116.4,
     39.9
    ],
    "type": "Point"
   },
   "properties": {
    "circuit": "辽",
    "game_unit": null,
    "is_seat": true,
    "kind": "regime_city",
    "level": "府",
    "name": "析津府"
   },
   "type": "Feature"
  },
  {
   "geometry": {
    "coordinates": [
     113.3,
     40.1
    ],
    "type": "Point"
   },
   "properties": {
    "circuit": "辽",
    "game_unit": null,
    "is_seat": true,
    "kind": "regime_city",
    "level": "府",
    "name": "大同府"
   },
   "type": "Feature"
  },
  {
   "geometry": {
    "coordinates": [
     120.2,
     41.6
    ],
    "type": "Point"
   },
   "properties": {
    "circuit": "辽",
    "game_unit": null,
    "is_seat": true,
    "kind": "regime_city",
    "level": "府",
    "name": "大定府"
   },
   "type": "Feature"
  },
  {
   "geometry": {
    "coordinates": [
     123.2,
     41.3
    ],
    "type": "Point"
   },
   "properties": {
    "circuit": "辽",
    "game_unit": null,
    "is_seat": true,
    "kind": "regime_city",
    "level": "府",
    "name": "辽阳府"
   },
   "type": "Feature"
  },
  {
   "geometry": {
    "coordinates": [
     119.4,
     43.9
    ],
    "type": "Point"
   },
   "properties": {
    "circuit": "辽",
    "game_unit": null,
    "is_seat": true,
    "kind": "regime_city",
    "level": "府",
    "name": "临潢府"
   },
   "type": "Feature"
  },
  {
   "geometry": {
    "coordinates": [
     106.3,
     38.5
    ],
    "type": "Point"
   },
   "properties": {
    "circuit": "西夏",
    "game_unit": null,
    "is_seat": true,
    "kind": "regime_city",
    "level": "府",
    "name": "兴庆府"
   },
   "type": "Feature"
  },
  {
   "geometry": {
    "coordinates": [
     106.3,
     38.1
    ],
    "type": "Point"
   },
   "properties": {
    "circuit": "西夏",
    "game_unit": null,
    "is_seat": true,
    "kind": "regime_city",
    "level": "府",
    "name": "西平府"
   },
   "type": "Feature"
  },
  {
   "geometry": {
    "coordinates": [
     102.6,
     37.9
    ],
    "type": "Point"
   },
   "properties": {
    "circuit": "西夏",
    "game_unit": null,
    "is_seat": true,
    "kind": "regime_city",
    "level": "府",
    "name": "西凉府"
   },
   "type": "Feature"
  },
  {
   "geometry": {
    "coordinates": [
     100.4,
     38.9
    ],
    "type": "Point"
   },
   "properties": {
    "circuit": "西夏",
    "game_unit": null,
    "is_seat": false,
    "kind": "regime_city",
    "level": "州",
    "name": "甘州"
   },
   "type": "Feature"
  },
  {
   "geometry": {
    "coordinates": [
     98.5,
     39.7
    ],
    "type": "Point"
   },
   "properties": {
    "circuit": "西夏",
    "game_unit": null,
    "is_seat": false,
    "kind": "regime_city",
    "level": "州",
    "name": "肃州"
   },
   "type": "Feature"
  },
  {
   "geometry": {
    "coordinates": [
     126.62,
     37.97
    ],
    "type": "Point"
   },
   "properties": {
    "circuit": "高丽",
    "game_unit": null,
    "is_seat": false,
    "kind": "regime_city",
    "level": "州",
    "name": "开京"
   },
   "type": "Feature"
  },
  {
   "geometry": {
    "coordinates": [
     125.75,
     39.03
    ],
    "type": "Point"
   },
   "properties": {
    "circuit": "高丽",
    "game_unit": null,
    "is_seat": false,
    "kind": "regime_city",
    "level": "州",
    "name": "西京"
   },
   "type": "Feature"
  },
  {
   "geometry": {
    "coordinates": [
     135.77,
     35.01
    ],
    "type": "Point"
   },
   "properties": {
    "circuit": "日本",
    "game_unit": null,
    "is_seat": false,
    "kind": "regime_city",
    "level": "州",
    "name": "平安京"
   },
   "type": "Feature"
  },
  {
   "geometry": {
    "coordinates": [
     135.83,
     34.69
    ],
    "type": "Point"
   },
   "properties": {
    "circuit": "日本",
    "game_unit": null,
    "is_seat": false,
    "kind": "regime_city",
    "level": "州",
    "name": "奈良"
   },
   "type": "Feature"
  },
  {
   "geometry": {
    "coordinates": [
     130.55,
     33.52
    ],
    "type": "Point"
   },
   "properties": {
    "circuit": "日本",
    "game_unit": null,
    "is_seat": true,
    "kind": "regime_city",
    "level": "府",
    "name": "大宰府"
   },
   "type": "Feature"
  }
 ],
 "type": "FeatureCollection"
}
