{
 "features": [
  {
   "geometry": {
    "coordinates": [
     [
      [
       112.8,
       41.5
      ],
      [
       115.0,
       39.9
      ],
      [
       118.5,
       40.3
      ],
      [
       121.8,
       39.8
      ],
      [
       124.5,
       40.8
      ],
      [
       128.0,
       42.0
      ],
      [
       131.5,
       43.5
      ],
      [
       133.5,
       46.5
      ],
      [
       131.0,
       49.0
      ],
      [
       126.5,
       49.5
      ],
      [
       122.0,
       48.0
      ],
      [
       117.5,
       46.5
      ],
      [
       113.5,
       44.5
      ],
      [
       112.8,
       41.5
      ]
     ]
    ],
    "type": "Polygon"
   },
   "properties": {
    "active": true,
    "always_show": true,
    "display_name": "辽",
    "kind": "regime",
    "label_at": [
     119.5,
     45.5
    ],
    "name": "辽",
    "note": "",
    "owner": "辽"
   },
   "type": "Feature"
  },
  {
   "geometry": {
    "coordinates": [
     [
      [
       112.8,
       41.5
      ],
      [
       115.0,
       41.5
      ],
      [
       115.0,
       39.9
      ],
      [
       113.2,
       41.2
      ],
      [
       112.8,
       41.5
      ]
     ]
    ],
    "type": "Polygon"
   },
   "properties": {
    "kind": "sub",
    "label_at": [
     113.9,
     40.7
    ],
    "name": "西京道",
    "owner": "辽",
    "parent": "辽",
    "seat": "大同府",
    "seat_at": [
     113.3,
     40.1
    ]
   },
   "type": "Feature"
  },
  {
   "geometry": {
    "coordinates": [
     [
      [
       115.0,
       41.5
      ],
      [
       119.0,
       42.5
      ],
      [
       118.5,
       40.3
      ],
      [
       115.0,
       39.9
      ],
      [
       115.0,
       41.5
      ]
     ]
    ],
    "type": "Polygon"
   },
   "properties": {
    "kind": "sub",
    "label_at": [
     116.9,
     41.0
    ],
    "name": "南京道",
    "owner": "辽",
    "parent": "辽",
    "seat": "析津府",
    "seat_at": [
     116.4,
     39.9
    ]
   },
   "type": "Feature"
  },
  {
   "geometry": {
    "coordinates": [
     [
      [
       112.8,
       41.5
      ],
      [
       113.5,
       44.5
      ],
      [
       117.5,
       46.5
      ],
      [
       122.0,
       48.0
      ],
      [
       121.5,
       44.5
      ],
      [
       119.0,
       42.5
      ],
      [
       115.0,
       41.5
      ],
      [
       112.8,
       41.5
      ]
     ]
    ],
    "type": "Polygon"
   },
   "properties": {
    "kind": "sub",
    "label_at": [
     116.5,
     44.8
    ],
    "name": "上京道",
    "owner": "辽",
    "parent": "辽",
    "seat": "临潢府",
    "seat_at": [
     119.4,
     43.9
    ]
   },
   "type": "Feature"
  },
  {
   "geometry": {
    "coordinates": [
     [
      [
       115.0,
       41.5
      ],
      [
       119.0,
       42.5
      ],
      [
       121.5,
       44.5
      ],
      [
       124.5,
       40.8
      ],
      [
       121.8,
       39.8
      ],
      [
       118.5,
       40.3
      ],
      [
       115.0,
       41.5
      ]
     ]
    ],
    "type": "Polygon"
   },
   "properties": {
    "kind": "sub",
    "label_at": [
     119.3,
     41.9
    ],
    "name": "中京道",
    "owner": "辽",
    "parent": "辽",
    "seat": "大定府",
    "seat_at": [
     120.2,
     41.6
    ]
   },
   "type": "Feature"
  },
  {
   "geometry": {
    "coordinates": [
     [
      [
       121.5,
       44.5
      ],
      [
       122.0,
       48.0
      ],
      [
       126.5,
       49.5
      ],
      [
       131.0,
       49.0
      ],
      [
       133.5,
       46.5
      ],
      [
       131.5,
       43.5
      ],
      [
       128.0,
       42.0
      ],
      [
       124.5,
       40.8
      ],
      [
       121.8,
       39.8
      ],
      [
       121.5,
       44.5
      ]
     ]
    ],
    "type": "Polygon"
   },
   "properties": {
    "kind": "sub",
    "label_at": [
     126.0,
     43.9
    ],
    "name": "东京道",
    "owner": "辽",
    "parent": "辽",
    "seat": "辽阳府",
    "seat_at": [
     123.2,
     41.3
    ]
   },
   "type": "Feature"
  },
  {
   "geometry": {
    "coordinates": [
     [
      [
       125.8,
       43.5
      ],
      [
       129.5,
       42.0
      ],
      [
       131.5,
       43.5
      ],
      [
       131.0,
       46.0
      ],
      [
       128.0,
       46.5
      ],
      [
       125.5,
       45.0
      ],
      [
       125.8,
       43.5
      ]
     ]
    ],
    "type": "Polygon"
   },
   "properties": {
    "active": false,
    "always_show": false,
    "display_name": "金",
    "kind": "regime",
    "label_at": [
     128.5,
     44.5
    ],
    "name": "金",
    "note": "生女真；timeline break'金崛起'激活，同时辽收缩",
    "owner": "金"
   },
   "type": "Feature"
  },
  {
   "geometry": {
    "coordinates": [
     [
      [
       97.5,
       38.5
      ],
      [
       100.5,
       37.2
      ],
      [
       103.5,
       36.2
      ],
      [
       106.4,
       36.3
      ],
      [
       106.4,
       38.6
      ],
      [
       103.0,
       40.5
      ],
      [
       99.5,
       41.5
      ],
      [
       97.0,
       40.5
      ],
      [
       96.5,
       39.5
      ],
      [
       97.5,
       38.5
      ]
     ]
    ],
    "type": "Polygon"
   },
   "properties": {
    "active": true,
    "always_show": true,
    "display_name": "西夏",
    "kind": "regime",
    "label_at": [
     101.0,
     39.0
    ],
    "name": "西夏",
    "note": "",
    "owner": "西夏"
   },
   "type": "Feature"
  },
  {
   "geometry": {
    "coordinates": [
     [
      [
       96.5,
       39.5
      ],
      [
       97.0,
       40.5
      ],
      [
       99.5,
       41.5
      ],
      [
       103.0,
       40.5
      ],
      [
       102.8,
       38.0
      ],
      [
       100.0,
       37.0
      ],
      [
       97.5,
       38.5
      ],
      [
       96.5,
       39.5
      ]
     ]
    ],
    "type": "Polygon"
   },
   "properties": {
    "kind": "sub",
    "label_at": [
     99.8,
     39.3
    ],
    "name": "河西走廊",
    "owner": "西夏",
    "parent": "西夏",
    "seat": "甘州",
    "seat_at": [
     100.4,
     38.9
    ]
   },
   "type": "Feature"
  },
  {
   "geometry": {
    "coordinates": [
     [
      [
       102.8,
       38.0
      ],
      [
       103.0,
       40.5
      ],
      [
       104.8,
       40.6
      ],
      [
       105.8,
       38.8
      ],
      [
       105.8,
       37.2
      ],
      [
       103.5,
       36.2
      ],
      [
       102.8,
       38.0
      ]
     ]
    ],
    "type": "Polygon"
   },
   "properties": {
    "kind": "sub",
    "label_at": [
     104.3,
     38.9
    ],
    "name": "兴庆府直辖",
    "owner": "西夏",
    "parent": "西夏",
    "seat": "兴庆府",
    "seat_at": [
     106.3,
     38.5
    ]
   },
   "type": "Feature"
  },
  {
   "geometry": {
    "coordinates": [
     [
      [
       105.8,
       37.2
      ],
      [
       106.4,
       38.6
      ],
      [
       106.4,
       36.3
      ],
      [
       105.3,
       36.0
      ],
      [
       103.5,
       36.2
      ],
      [
       105.8,
       37.2
      ]
     ]
    ],
    "type": "Polygon"
   },
   "properties": {
    "kind": "sub",
    "label_at": [
     105.3,
     37.1
    ],
    "name": "河南地",
    "owner": "西夏",
    "parent": "西夏",
    "seat": "韦州",
    "seat_at": [
     106.0,
     37.2
    ]
   },
   "type": "Feature"
  },
  {
   "geometry": {
    "coordinates": [
     [
      [
       78.5,
       35.5
      ],
      [
       82.0,
       36.5
      ],
      [
       86.0,
       36.8
      ],
      [
       90.0,
       36.0
      ],
      [
       93.5,
       34.5
      ],
      [
       96.5,
       33.5
      ],
      [
       97.5,
       31.5
      ],
      [
       95.0,
       29.0
      ],
      [
       91.0,
       27.8
      ],
      [
       86.0,
       28.2
      ],
      [
       81.0,
       29.5
      ],
      [
       78.0,
       31.5
      ],
      [
       77.5,
       33.5
      ],
      [
       78.5,
       35.5
      ]
     ]
    ],
    "type": "Polygon"
   },
   "properties": {
    "active": true,
    "always_show": true,
    "display_name": "吐蕃诸部",
    "kind": "regime",
    "label_at": [
     87.0,
     32.0
    ],
    "name": "吐蕃",
    "note": "",
    "owner": "吐蕃"
   },
   "type": "Feature"
  },
  {
   "geometry": {
    "coordinates": [
     [
      [
       88.0,
       46.5
      ],
      [
       93.0,
       48.5
      ],
      [
       99.0,
       49.5
      ],
      [
       106.0,
       49.0
      ],
      [
       111.5,
       47.5
      ],
      [
       112.0,
       45.0
      ],
      [
       107.0,
       43.5
      ],
      [
       99.0,
       42.5
      ],
      [
       92.0,
       43.5
      ],
      [
       87.5,
       44.5
      ],
      [
       88.0,
       46.5
      ]
     ]
    ],
    "type": "Polygon"
   },
   "properties": {
    "active": true,
    "always_show": false,
    "display_name": "喀尔喀蒙古",
    "kind": "regime",
    "label_at": [
     99.0,
     46.0
    ],
    "name": "喀尔喀蒙古",
    "note": "",
    "owner": "喀尔喀蒙古"
   },
   "type": "Feature"
  },
  {
   "geometry": {
    "coordinates": [
     [
      [
       107.0,
       43.5
      ],
      [
       112.0,
       45.0
      ],
      [
       112.8,
       43.0
      ],
      [
       110.0,
       41.0
      ],
      [
       106.0,
       40.8
      ],
      [
       103.0,
       41.5
      ],
      [
       102.5,
       43.0
      ],
      [
       104.5,
       43.8
      ],
      [
       107.0,
       43.5
      ]
     ]
    ],
    "type": "Polygon"
   },
   "properties": {
    "active": true,
    "always_show": false,
    "display_name": "漠南蒙古",
    "kind": "regime",
    "label_at": [
     107.0,
     42.5
    ],
    "name": "漠南蒙古",
    "note": "",
    "owner": "漠南蒙古"
   },
   "type": "Feature"
  },
  {
   "geometry": {
    "coordinates": [
     [
      [
       118.0,
       44.5
      ],
      [
       122.0,
       45.5
      ],
      [
       125.0,
       46.5
      ],
      [
       124.5,
       48.0
      ],
      [
       120.5,
       48.5
      ],
      [
       117.5,
       47.0
      ],
      [
       117.0,
       45.5
      ],
      [
       118.0,
       44.5
      ]
     ]
    ],
    "type": "Polygon"
   },
   "properties": {
    "active": true,
    "always_show": false,
    "display_name": "科尔沁",
    "kind": "regime",
    "label_at": [
     121.0,
     46.5
    ],
    "name": "科尔沁",
    "note": "",
    "owner": "科尔沁"
   },
   "type": "Feature"
  },
  {
   "geometry": {
    "coordinates": [
     [
      [
       110.5,
       41.0
      ],
      [
       113.5,
       41.8
      ],
      [
       115.5,
       42.5
      ],
      [
       114.5,
       43.8
      ],
      [
       111.5,
       43.5
      ],
      [
       109.5,
       42.3
      ],
      [
       110.5,
       41.0
      ]
     ]
    ],
    "type": "Polygon"
   },
   "properties": {
    "active": true,
    "always_show": false,
    "display_name": "察哈尔",
    "kind": "regime",
    "label_at": [
     112.5,
     42.3
    ],
    "name": "察哈尔",
    "note": "",
    "owner": "察哈尔"
   },
   "type": "Feature"
  },
  {
   "geometry": {
    "coordinates": [
     [
      [
       127.5,
       46.5
      ],
      [
       131.0,
       46.8
      ],
      [
       133.5,
       48.5
      ],
      [
       131.5,
       50.5
      ],
      [
       127.5,
       50.0
      ],
      [
       125.5,
       48.0
      ],
      [
       127.5,
       46.5
      ]
     ]
    ],
    "type": "Polygon"
   },
   "properties": {
    "active": true,
    "always_show": false,
    "display_name": "海西女真",
    "kind": "regime",
    "label_at": [
     129.5,
     48.5
    ],
    "name": "海西",
    "note": "",
    "owner": "海西"
   },
   "type": "Feature"
  },
  {
   "geometry": {
    "coordinates": [
     [
      [
       125.8,
       43.5
      ],
      [
       128.5,
       43.0
      ],
      [
       130.5,
       43.8
      ],
      [
       129.5,
       45.2
      ],
      [
       126.8,
       45.3
      ],
      [
       125.5,
       44.3
      ],
      [
       125.8,
       43.5
      ]
     ]
    ],
    "type": "Polygon"
   },
   "properties": {
    "active": true,
    "always_show": false,
    "display_name": "建州女真",
    "kind": "regime",
    "label_at": [
     127.8,
     44.3
    ],
    "name": "建州",
    "note": "",
    "owner": "建州"
   },
   "type": "Feature"
  },
  {
   "geometry": {
    "coordinates": [
     [
      [
       131.5,
       43.8
      ],
      [
       134.5,
       44.5
      ],
      [
       136.0,
       46.5
      ],
      [
       134.0,
       48.0
      ],
      [
       132.0,
       47.0
      ],
      [
       131.0,
       45.2
      ],
      [
       131.5,
       43.8
      ]
     ]
    ],
    "type": "Polygon"
   },
   "properties": {
    "active": true,
    "always_show": false,
    "display_name": "东海女真",
    "kind": "regime",
    "label_at": [
     133.5,
     46.0
    ],
    "name": "东海",
    "note": "",
    "owner": "东海"
   },
   "type": "Feature"
  },
  {
   "geometry": {
    "coordinates": [
     [
      [
       124.6,
       39.8
      ],
      [
       125.8,
       40.5
      ],
      [
       127.2,
       39.5
      ],
      [
       128.5,
       38.5
      ],
      [
       129.5,
       37.0
      ],
      [
       129.2,
       35.2
      ],
      [
       127.8,
       34.8
      ],
      [
       126.5,
       36.8
      ],
      [
       126.0,
       38.0
      ],
      [
       124.6,
       38.5
      ],
      [
       124.6,
       39.8
      ]
     ]
    ],
    "type": "Polygon"
   },
   "properties": {
    "active": true,
    "always_show": true,
    "display_name": "高丽",
    "kind": "regime",
    "label_at": [
     127.0,
     37.5
    ],
    "name": "高丽",
    "note": "",
    "owner": "高丽"
   },
   "type": "Feature"
  },
  {
   "geometry": {
    "coordinates": [
     [
      [
       129.5,
       31.2
      ],
      [
       130.8,
       33.0
      ],
      [
       131.5,
       34.5
      ],
      [
       133.5,
       35.5
      ],
      [
       136.0,
       35.8
      ],
      [
       138.5,
       37.5
      ],
      [
       140.5,
       39.5
      ],
      [
       141.5,
       41.5
      ],
      [
       142.5,
       43.5
      ],
      [
       144.0,
       44.2
      ],
      [
       145.5,
       43.5
      ],
      [
       143.5,
       42.0
      ],
      [
       141.0,
       40.0
      ],
      [
       139.5,
       37.5
      ],
      [
       137.0,
       36.0
      ],
      [
       134.5,
       34.0
      ],
      [
       132.0,
       32.8
      ],
      [
       130.5,
       31.0
      ],
      [
       129.5,
       31.2
      ]
     ]
    ],
    "type": "Polygon"
   },
   "properties": {
    "active": true,
    "always_show": true,
    "display_name": "日本",
    "kind": "regime",
    "label_at": [
     137.5,
     36.5
    ],
    "name": "日本",
    "note": "",
    "owner": "日本"
   },
   "type": "Feature"
  },
  {
   "geometry": {
    "coordinates": [
     [
      [
       126.8,
       26.6
      ],
      [
       127.6,
       26.2
      ],
      [
       128.3,
       26.8
      ],
      [
       128.2,
       27.8
      ],
      [
       127.0,
       27.5
      ],
      [
       126.8,
       26.6
      ]
     ]
    ],
    "type": "Polygon"
   },
   "properties": {
    "active": true,
    "always_show": false,
    "display_name": "琉球",
    "kind": "regime",
    "label_at": [
     127.5,
     27.0
    ],
    "name": "琉球",
    "note": "",
    "owner": "琉球"
   },
   "type": "Feature"
  }
 ],
 "type": "FeatureCollection"
}
